{"fetched_at":"2026-03-29T16:36:15Z","count":15609,"tles":[{"name":"STARLINK-34889","line1":"1 65761U 25216AD  26087.77923109  .00028442  00000+0  96785-3 0  9999","line2":"2 65761  53.1577 244.4050 0001105  82.1007 278.0120 15.30229420 29514","category":"Starlink"}]}